0 TDRS 3
1 19548U 88091B   13281.38698965 -.00000299  00000-0  10000-3 0  1595
2 19548 014.2864 022.8856 0010583 328.5629 115.9512 01.00282523 78920
0 TDRS 3
1 19548U 88091B   13282.85584014 -.00000302  00000-0  10000-3 0  1604
2 19548 014.2880 022.8693 0010520 328.4353 286.3801 01.00282001 78937
0 TDRS 3
1 19548U 88091B   13287.16014822 -.00000310  00000-0  10000-3 0  1629
2 19548 014.2926 022.8213 0010516 328.3202 040.4601 01.00280136 78982
0 TDRS 3
1 19548U 88091B   13288.36179358 -.00000310  00000-0  10000-3 0  1639
2 19548 014.2940 022.8082 0010416 328.0345 114.5628 01.00279552 78999
0 TDRS 3
1 19548U 88091B   13290.12714189  .00000000  00000-0  10000-3 0  1649
2 19548 014.2962 022.7875 0010159 326.8319 033.0869 01.00274540 79000
0 TDRS 3
1 19548U 88091B   13290.38177027 -.00000310  00000-0  10000-3 0  1646
2 19548 014.2962 022.7857 0010402 327.9948 123.8528 01.00278753 79012
0 TDRS 3
1 19548U 88091B   13291.39039566 -.00000309  00000-0  10000-3 0  1652
2 19548 014.2973 022.7745 0010400 327.9471 128.0312 01.00278353 79024
0 TDRS 3
1 19548U 88091B   13294.37140581 -.00000304  00000-0  10000-3 0  1669
2 19548 014.3005 022.7418 0010357 327.0513 125.1222 01.00277365 79050
